NORAD_CAT_ID,OBJECT_NAME,OBJECT_TYPE,EPOCH,MEAN_MOTION,ECCENTRICITY,INCLINATION,RA_OF_ASC_NODE,ARG_OF_PERICENTER,MEAN_ANOMALY,BSTAR,MEAN_MOTION_DOT,MEAN_MOTION_DDOT,TLE_LINE0,TLE_LINE1,TLE_LINE2,SEMIMAJOR_AXIS,PERIOD,APOGEE,PERIGEE,DECAYED
53576.0,STARLINK-4581,PAYLOAD,2023-05-13 21:34:44,15.08846373,8.6e-05,53.2169,1.3171,88.7301,271.379,0.00029561,4.421e-05,0.0,0 STARLINK-4581,1 53576U 22101BB  23133.89912708  .00004421  00000-0  29561-3 0  9995,2 53576  53.2169   1.3171 0000860  88.7301 271.3790 15.08846373 41658,6917.861,95.437,540.321,539.131,0.0
53576.0,STARLINK-4581,PAYLOAD,2023-05-14 02:20:53,15.0885374,8.72e-05,53.217,0.4248,84.6827,275.4265,0.00038816,5.897e-05,0.0,0 STARLINK-4581,1 53576U 22101BB  23134.09784386  .00005897  00000-0  38816-3 0  9998,2 53576  53.2170   0.4248 0000872  84.6827 275.4265 15.08853740 40866,6917.838,95.437,540.307,539.1,0.0
53576.0,STARLINK-4581,PAYLOAD,2023-05-14 21:25:31,15.08842128,8.83e-05,53.2177,356.8558,85.6076,274.5017,3.2867e-05,2.35e-06,0.0,0 STARLINK-4581,1 53576U 22101BB  23134.89272814  .00000235  00000-0  32867-4 0  9996,2 53576  53.2177 356.8558 0000883  85.6076 274.5017 15.08842128 40980,6917.874,95.437,540.35,539.128,0.0
53576.0,STARLINK-4581,PAYLOAD,2023-05-15 21:16:18,15.08844502,9.67e-05,53.2179,352.3961,85.013,275.0972,9.1447e-05,1.168e-05,0.0,0 STARLINK-4581,1 53576U 22101BB  23135.88632746  .00001168  00000-0  91447-4 0  9995,2 53576  53.2179 352.3961 0000967  85.0130 275.0972 15.08844502 41951,6917.867,95.437,540.401,539.063,0.0
53576.0,STARLINK-4581,PAYLOAD,2023-05-16 14:45:33,15.08836406,0.0001021,53.2174,349.1245,83.4659,276.645,0.00012563,1.712e-05,0.0,0 STARLINK-4581,1 53576U 22101BB  23136.61497212  .00001712  00000-0  12563-3 0  9990,2 53576  53.2174 349.1245 0001021  83.4659 276.6450 15.08836406 42060,6917.891,95.438,540.463,539.05,0.0
53576.0,STARLINK-4581,PAYLOAD,2023-05-16 21:07:05,15.08844513,9.28e-05,53.2169,347.9355,77.4638,282.6458,2.3065e-05,7.9e-07,0.0,0 STARLINK-4581,1 53576U 22101BB  23136.87992734  .00000079  00000-0  23065-4 0  9992,2 53576  53.2169 347.9355 0000928  77.4638 282.6458 15.08844513 41283,6917.867,95.437,540.374,539.09,0.0
53576.0,STARLINK-4581,PAYLOAD,2023-05-17 19:22:30,15.08838793,8.19e-05,53.2175,343.7734,83.8891,276.2195,7.38e-05,8.87e-06,0.0,0 STARLINK-4581,1 53576U 22101BB  23137.80729294  .00000887  00000-0  73800-4 0  9994,2 53576  53.2175 343.7734 0000819  83.8891 276.2195 15.08838793 41422,6917.884,95.438,540.316,539.183,0.0
53576.0,STARLINK-4581,PAYLOAD,2023-05-17 20:57:53,15.0883874,4.43e-05,53.2175,343.476,58.2797,301.8238,8.3919e-05,1.048e-05,0.0,0 STARLINK-4581,1 53576U 22101BB  23137.87353288  .00001048  00000-0  83919-4 0  9999,2 53576  53.2175 343.4760 0000443  58.2797 301.8238 15.08838740 42259,6917.884,95.438,540.056,539.443,0.0
53576.0,STARLINK-4581,PAYLOAD,2023-05-18 14:27:07,15.08837341,8.75e-05,53.2181,340.2038,78.8702,281.2389,3.7984e-05,3.17e-06,0.0,0 STARLINK-4581,1 53576U 22101BB  23138.60217516  .00000317  00000-0  37984-4 0  9993,2 53576  53.2181 340.2038 0000875  78.8702 281.2389 15.08837341 42368,6917.889,95.438,540.359,539.148,0.0
53576.0,STARLINK-4581,PAYLOAD,2023-05-18 22:24:03,15.08841796,8.91e-05,53.2183,338.7168,75.063,285.0461,6.388e-05,7.29e-06,0.0,0 STARLINK-4581,1 53576U 22101BB  23138.93337180  .00000729  00000-0  63880-4 0  9990,2 53576  53.2183 338.7168 0000891  75.0630 285.0461 15.08841796 42411,6917.875,95.437,540.356,539.124,0.0
53576.0,STARLINK-4581,PAYLOAD,2023-05-19 20:39:27,15.08846289,0.0001127,53.2179,334.5534,97.0567,263.0553,6.5287e-05,7.52e-06,0.0,0 STARLINK-4581,1 53576U 22101BB  23139.86072979  .00000752  00000-0  65287-4 0  9994,2 53576  53.2179 334.5534 0001127  97.0567 263.0553 15.08846289 42558,6917.861,95.437,540.506,538.947,0.0
53576.0,STARLINK-4581,PAYLOAD,2023-05-20 06:11:45,15.08844993,9.41e-05,53.2178,332.7705,83.4741,276.6358,0.00010656,1.409e-05,0.0,0 STARLINK-4581,1 53576U 22101BB  23140.25816979  .00001409  00000-0  10656-3 0  9994,2 53576  53.2178 332.7705 0000941  83.4741 276.6358 15.08844993 41791,6917.865,95.437,540.381,539.079,0.0
53576.0,STARLINK-4581,PAYLOAD,2023-05-20 18:54:50,15.08850312,7.41e-05,53.2177,330.3905,87.997,272.1107,0.00012753,1.743e-05,0.0,0 STARLINK-4581,1 53576U 22101BB  23140.78808414  .00001743  00000-0  12753-3 0  9998,2 53576  53.2177 330.3905 0000741  87.9970 272.1107 15.08850312 42692,6917.849,95.437,540.226,539.201,0.0
53576.0,STARLINK-4581,PAYLOAD,2023-05-21 06:02:32,15.08844451,7.24e-05,53.2164,328.311,77.5233,282.584,8.828e-05,1.118e-05,0.0,0 STARLINK-4581,1 53576U 22101BB  23141.25176770  .00001118  00000-0  88280-4 0  9999,2 53576  53.2164 328.3110 0000724  77.5233 282.5840 15.08844451 42765,6917.867,95.437,540.233,539.231,0.0
53576.0,STARLINK-4581,PAYLOAD,2023-05-21 15:34:53,15.08824592,7.86e-05,53.2175,326.5265,91.2238,268.8844,-7.3007e-05,-1.449e-05,0.0,0 STARLINK-4581,1 53576U 22101BB  23141.64922669 -.00001449  00000-0 -73007-4 0  9998,2 53576  53.2175 326.5265 0000786  91.2238 268.8844 15.08824592 42006,6917.927,95.439,540.336,539.249,0.0
53576.0,STARLINK-4581,PAYLOAD,2023-05-21 21:56:25,15.0882959,0.0001,53.2175,325.3348,109.0626,251.0475,-0.00010163,-1.904e-05,0.0,0 STARLINK-4581,1 53576U 22101BB  23141.91418013 -.00001904  00000-0 -10163-3 0  9990,2 53576  53.2175 325.3348 0001000 109.0626 251.0475 15.08829590 42865,6917.912,95.438,540.469,539.085,0.0
53576.0,STARLINK-4581,PAYLOAD,2023-05-22 12:14:52,15.08843989,9.14e-05,53.2189,322.6629,130.9741,229.133,8.1095e-05,1.003e-05,0.0,0 STARLINK-4581,1 53576U 22101BB  23142.51033221  .00001003  00000-0  81095-4 0  9992,2 53576  53.2189 322.6629 0000914 130.9741 229.1330 15.08843989 42950,6917.868,95.437,540.365,539.101,0.0
53576.0,STARLINK-4581,PAYLOAD,2023-05-22 18:36:25,15.08853365,7.91e-05,53.2171,321.4712,100.9727,259.1354,0.00030976,4.647e-05,0.0,0 STARLINK-4581,1 53576U 22101BB  23142.77528987  .00004647  00000-0  30976-3 0  9996,2 53576  53.2171 321.4712 0000791 100.9727 259.1354 15.08853365 42177,6917.84,95.437,540.252,539.157,0.0
53576.0,STARLINK-4581,PAYLOAD,2023-05-23 02:33:21,15.0882938,0.0001001,53.2175,319.981,125.4468,234.6617,-5.5711e-05,-1.174e-05,0.0,0 STARLINK-4581,1 53576U 22101BB  23143.10649892 -.00001174  00000-0 -55711-4 0  9992,2 53576  53.2175 319.9810 0001001 125.4468 234.6617 15.08829380 42227,6917.913,95.438,540.47,539.085,0.0
53576.0,STARLINK-4581,PAYLOAD,2023-05-23 18:27:12,15.08846209,6.99e-05,53.2178,317.0097,80.7286,279.3785,0.00046604,7.138e-05,0.0,0 STARLINK-4581,1 53576U 22101BB  23143.76889560  .00007138  00000-0  46604-3 0  9996,2 53576  53.2178 317.0097 0000699  80.7286 279.3785 15.08846209 42321,6917.861,95.437,540.21,539.243,0.0
53576.0,STARLINK-4581,PAYLOAD,2023-05-23 21:37:59,15.08840488,7.26e-05,53.2178,316.4157,72.0046,288.1025,0.0012128,0.00019067,0.0,0 STARLINK-4581,1 53576U 22101BB  23143.90137821  .00019067  00000-0  12128-2 0  9995,2 53576  53.2178 316.4157 0000726  72.0046 288.1025 15.08840488 43161,6917.879,95.438,540.246,539.242,0.0
53576.0,STARLINK-4581,PAYLOAD,2023-05-24 02:24:08,15.08838954,8.12e-05,53.2176,315.5228,80.3574,279.751,0.00040593,6.178e-05,0.0,0 STARLINK-4581,1 53576U 22101BB  23144.10009921  .00006178  00000-0  40593-3 0  9994,2 53576  53.2176 315.5228 0000812  80.3574 279.7510 15.08838954 42374,6917.884,95.438,540.31,539.187,0.0
53576.0,STARLINK-4581,PAYLOAD,2023-05-24 15:07:13,15.08848966,7.74e-05,53.2174,313.1437,84.1709,275.9371,0.00080282,0.00012515,0.0,0 STARLINK-4581,1 53576U 22101BB  23144.63001906  .00012515  00000-0  80282-3 0  9998,2 53576  53.2174 313.1437 0000774  84.1709 275.9371 15.08848966 43274,6917.853,95.437,540.253,539.183,0.0
53576.0,STARLINK-4581,PAYLOAD,2023-05-25 16:33:23,15.08846032,8.87e-05,53.2174,308.3869,78.4821,281.6271,0.00042236,6.442e-05,0.0,0 STARLINK-4581,1 53576U 22101BB  23145.68985914  .00006442  00000-0  42236-3 0  9993,2 53576  53.2174 308.3869 0000887  78.4821 281.6271 15.08846032 42617,6917.862,95.437,540.341,539.113,0.0
53576.0,STARLINK-4581,PAYLOAD,2023-05-26 17:59:34,15.08841833,7.93e-05,53.2172,303.6297,73.6994,286.4086,9.5862e-05,1.238e-05,0.0,0 STARLINK-4581,1 53576U 22101BB  23146.74969992  .00001238  00000-0  95862-4 0  9991,2 53576  53.2172 303.6297 0000793  73.6994 286.4086 15.08841833 42770,6917.875,95.437,540.288,539.191,0.0
53576.0,STARLINK-4581,PAYLOAD,2023-05-26 19:34:57,15.0884329,8.79e-05,53.217,303.3313,77.0206,283.0884,0.0001618,2.288e-05,0.0,0 STARLINK-4581,1 53576U 22101BB  23146.81593938  .00002288  00000-0  16180-3 0  9993,2 53576  53.2170 303.3313 0000879  77.0206 283.0884 15.08843290 43604,6917.87,95.437,540.343,539.127,0.0
53576.0,STARLINK-4581,PAYLOAD,2023-05-27 09:53:25,15.08837628,9.97e-05,53.2169,300.655,75.9547,284.1556,8.1756e-05,1.014e-05,0.0,0 STARLINK-4581,1 53576U 22101BB  23147.41210486  .00001014  00000-0  81756-4 0  9992,2 53576  53.2169 300.6550 0000997  75.9547 284.1556 15.08837628 42875,6917.888,95.438,540.442,539.063,0.0
53576.0,STARLINK-4581,PAYLOAD,2023-05-27 17:50:21,15.08839947,7.39e-05,53.2167,299.1689,75.8782,284.2292,9.2334e-05,1.182e-05,0.0,0 STARLINK-4581,1 53576U 22101BB  23147.74330300  .00001182  00000-0  92334-4 0  9996,2 53576  53.2167 299.1689 0000739  75.8782 284.2292 15.08839947 43743,6917.881,95.438,540.257,539.234,0.0
53576.0,STARLINK-4581,PAYLOAD,2023-05-28 03:22:40,15.0884148,7.08e-05,53.2167,297.3846,76.6375,283.4696,0.00014475,2.017e-05,0.0,0 STARLINK-4581,1 53576U 22101BB  23148.14074324  .00002017  00000-0  14475-3 0  9999,2 53576  53.2167 297.3846 0000708  76.6375 283.4696 15.08841480 43802,6917.876,95.437,540.231,539.251,0.0
53576.0,STARLINK-4581,PAYLOAD,2023-05-28 16:05:45,15.08847506,7.26e-05,53.2164,295.006,75.0469,285.0603,0.00022011,3.218e-05,0.0,0 STARLINK-4581,1 53576U 22101BB  23148.67066106  .00003218  00000-0  22011-3 0  9995,2 53576  53.2164 295.0060 0000726  75.0469 285.0603 15.08847506 43068,6917.857,95.437,540.225,539.22,0.0
